{"type":"FeatureCollection","features":[{"type":"Feature","properties":{"code":"BE","name":"Belgium"},"geometry":{"type":"Polygon","coordinates":[[[4.226,51.386],[4.304,51.362],[4.374,51.356],[4.404,51.367],[4.385,51.428],[4.441,51.46],[4.503,51.475],[4.532,51.449],[4.589,51.422],[4.634,51.422],[4.756,51.491],[4.784,51.477],[4.811,51.453],[4.816,51.433],[4.821,51.412],[4.848,51.403],[4.944,51.408],[4.993,51.445],[5.031,51.469],[5.059,51.453],[5.073,51.407],[5.1,51.346],[5.214,51.279],[5.311,51.26],[5.43,51.273],[5.477,51.285],[5.509,51.275],[5.54,51.239],[5.609,51.198],[5.752,51.169],[5.796,51.153],[5.827,51.126],[5.818,51.086],[5.75,50.989],[5.741,50.96],[5.75,50.95],[5.737,50.932],[5.648,50.867],[5.639,50.844],[5.669,50.806],[5.694,50.775],[5.747,50.76],[5.797,50.755],[5.892,50.753],[5.994,50.75],[6.006,50.732],[6.119,50.679],[6.154,50.637],[6.236,50.597],[6.168,50.545],[6.179,50.523],[6.203,50.499],[6.295,50.485],[6.341,50.452],[6.344,50.4],[6.364,50.316],[6.175,50.233],[6.121,50.139],[6.117,50.121],[6.11,50.124],[6.089,50.155],[6.055,50.154],[5.976,50.167],[5.867,50.083],[5.817,50.013],[5.788,49.961],[5.744,49.92],[5.735,49.876],[5.741,49.857],[5.726,49.833],[5.725,49.808],[5.788,49.759],[5.804,49.732],[5.88,49.645],[5.857,49.613],[5.838,49.578],[5.815,49.554],[5.79,49.538],[5.71,49.539],[5.61,49.528],[5.542,49.511],[5.507,49.511],[5.435,49.554],[5.354,49.62],[5.302,49.651],[5.279,49.678],[5.215,49.689],[5.124,49.721],[5.061,49.757],[5.007,49.778],[4.931,49.789],[4.868,49.788],[4.849,49.847],[4.842,49.915],[4.79,49.96],[4.861,50.136],[4.819,50.153],[4.773,50.139],[4.707,50.097],[4.675,50.047],[4.656,50.002],[4.545,49.96],[4.369,49.945],[4.176,49.96],[4.149,49.972],[4.137,49.984],[4.137,50],[4.15,50.024],[4.184,50.053],[4.192,50.094],[4.158,50.13],[4.135,50.144],[4.144,50.178],[4.17,50.222],[4.175,50.246],[4.044,50.321],[3.95,50.336],[3.858,50.339],[3.789,50.347],[3.748,50.344],[3.719,50.322],[3.689,50.306],[3.667,50.325],[3.627,50.457],[3.595,50.477],[3.477,50.499],[3.316,50.507],[3.273,50.532],[3.25,50.591],[3.235,50.663],[3.182,50.732],[3.155,50.749],[3.107,50.779],[3.023,50.767],[2.922,50.727],[2.862,50.716],[2.84,50.712],[2.759,50.751],[2.669,50.811],[2.597,50.876],[2.579,50.912],[2.601,50.955],[2.575,50.989],[2.536,51.05],[2.525,51.097],[2.96,51.265],[3.225,51.352],[3.35,51.378],[3.38,51.291],[3.403,51.264],[3.433,51.246],[3.472,51.242],[3.517,51.264],[3.58,51.286],[3.682,51.276],[3.756,51.255],[3.782,51.233],[3.831,51.213],[3.902,51.208],[4.04,51.247],[4.173,51.307],[4.211,51.349],[4.226,51.386]]]}},{"type":"Feature","properties":{"code":"LU","name":"Luxembourg"},"geometry":{"type":"Polygon","coordinates":[[[6.117,50.121],[6.108,50.094],[6.11,50.034],[6.138,49.974],[6.205,49.915],[6.256,49.872],[6.325,49.838],[6.441,49.805],[6.487,49.798],[6.494,49.754],[6.485,49.708],[6.445,49.682],[6.407,49.645],[6.378,49.6],[6.348,49.513],[6.344,49.453],[6.277,49.478],[6.242,49.494],[6.181,49.499],[6.12,49.485],[6.074,49.455],[6.011,49.445],[5.959,49.455],[5.929,49.478],[5.901,49.49],[5.823,49.505],[5.79,49.538],[5.815,49.554],[5.838,49.578],[5.857,49.613],[5.88,49.645],[5.804,49.732],[5.788,49.759],[5.725,49.808],[5.726,49.833],[5.741,49.857],[5.735,49.876],[5.744,49.92],[5.788,49.961],[5.817,50.013],[5.867,50.083],[5.976,50.167],[6.055,50.154],[6.089,50.155],[6.11,50.124],[6.117,50.121]]]}},{"type":"Feature","properties":{"code":"NL","name":"Netherlands"},"geometry":{"type":"MultiPolygon","coordinates":[[[[5.994,50.75],[5.892,50.753],[5.797,50.755],[5.747,50.76],[5.694,50.775],[5.669,50.806],[5.639,50.844],[5.648,50.867],[5.737,50.932],[5.75,50.95],[5.741,50.96],[5.75,50.989],[5.818,51.086],[5.827,51.126],[5.796,51.153],[5.752,51.169],[5.609,51.198],[5.54,51.239],[5.509,51.275],[5.477,51.285],[5.43,51.273],[5.311,51.26],[5.214,51.279],[5.1,51.346],[5.073,51.407],[5.059,51.453],[5.031,51.469],[4.993,51.445],[4.944,51.408],[4.848,51.403],[4.821,51.412],[4.816,51.433],[4.811,51.453],[4.784,51.477],[4.756,51.491],[4.634,51.422],[4.589,51.422],[4.532,51.449],[4.503,51.475],[4.441,51.46],[4.385,51.428],[4.404,51.367],[4.374,51.356],[4.304,51.362],[4.226,51.386],[4.139,51.402],[4.007,51.443],[3.822,51.409],[3.694,51.45],[3.587,51.454],[3.521,51.486],[3.449,51.541],[3.5,51.577],[3.549,51.589],[3.744,51.596],[3.886,51.574],[4.141,51.456],[4.206,51.457],[4.274,51.472],[4.239,51.504],[4.175,51.519],[4.08,51.551],[4.005,51.596],[4.183,51.61],[4.158,51.633],[4.135,51.673],[3.947,51.811],[3.979,51.848],[4.026,51.928],[4.085,51.994],[4.132,52.012],[4.209,52.059],[4.376,52.197],[4.483,52.309],[4.562,52.443],[4.678,52.81],[4.713,52.872],[4.769,52.941],[4.839,52.928],[4.888,52.908],[5.061,52.961],[5.358,53.096],[5.446,53.214],[5.532,53.269],[5.874,53.375],[6.062,53.407],[6.353,53.415],[6.564,53.434],[6.816,53.441],[6.912,53.375],[6.968,53.327],[7.058,53.301],[7.197,53.282],[7.189,53.187],[7.19,53.0],[7.179,52.966],[7.117,52.887],[7.051,52.745],[7.033,52.651],[7.013,52.634],[6.748,52.634],[6.711,52.618],[6.705,52.598],[6.719,52.574],[6.712,52.55],[6.692,52.53],[6.703,52.499],[6.749,52.464],[6.833,52.442],[6.922,52.44],[6.968,52.444],[7.002,52.419],[7.035,52.38],[7.033,52.331],[7.02,52.266],[6.977,52.206],[6.855,52.136],[6.8,52.111],[6.749,52.099],[6.725,52.08],[6.713,52.057],[6.716,52.036],[6.802,51.98],[6.8,51.967],[6.775,51.938],[6.742,51.911],[6.518,51.854],[6.425,51.858],[6.372,51.83],[6.356,51.825],[6.297,51.851],[6.167,51.881],[6.117,51.87],[6.09,51.854],[6.008,51.834],[5.949,51.803],[5.949,51.762],[6.053,51.658],[6.089,51.638],[6.091,51.599],[6.142,51.55],[6.193,51.489],[6.199,51.45],[6.193,51.411],[6.166,51.355],[6.076,51.224],[6.075,51.199],[6.082,51.18],[6.113,51.175],[6.137,51.165],[6.13,51.147],[5.961,51.057],[5.939,51.041],[5.868,51.045],[5.858,51.03],[5.867,51.006],[5.895,50.984],[5.955,50.973],[6.007,50.95],[6.048,50.905],[5.994,50.75]]],[[[4.226,51.386],[4.211,51.349],[4.173,51.307],[4.04,51.247],[3.902,51.208],[3.831,51.213],[3.782,51.233],[3.756,51.255],[3.682,51.276],[3.58,51.286],[3.517,51.264],[3.472,51.242],[3.433,51.246],[3.403,51.264],[3.38,51.291],[3.35,51.378],[3.426,51.394],[3.589,51.399],[3.717,51.369],[3.883,51.354],[4.011,51.396],[4.112,51.361],[4.226,51.386]]],[[[6.333,53.511],[6.193,53.477],[6.159,53.484],[6.168,53.494],[6.291,53.515],[6.333,53.511]]],[[[5.929,53.459],[5.732,53.443],[5.665,53.455],[5.654,53.467],[5.708,53.473],[5.876,53.475],[5.928,53.465],[5.929,53.459]]],[[[5.109,53.308],[4.924,53.235],[4.908,53.246],[5.027,53.31],[5.109,53.308]]],[[[5.326,53.386],[5.233,53.378],[5.19,53.392],[5.415,53.431],[5.557,53.444],[5.583,53.438],[5.326,53.386]]],[[[4.886,53.071],[4.787,53.0],[4.727,53.02],[4.709,53.036],[4.74,53.091],[4.886,53.183],[4.886,53.071]]],[[[3.949,51.739],[4.047,51.685],[4.068,51.667],[4.075,51.649],[3.951,51.627],[3.819,51.694],[3.732,51.678],[3.699,51.71],[3.699,51.73],[3.789,51.746],[3.949,51.739]]],[[[6.735,53.583],[6.642,53.579],[6.669,53.606],[6.755,53.625],[6.801,53.625],[6.735,53.583]]]]}}]}